STARLINK-1958           
1 47559U 21009M   26068.89583456  .00097472  00000+0  87609-3 0  9993
2 47559  53.0457 320.4715 0005390 347.5018  12.5863 15.67474201281679
STARLINK-11105 [DTC]    
1 59758U 24091F   26068.63210413 -.00002029  00000+0 -11902-4 0  9993
2 59758  53.1592 206.6079 0001115 109.6630 250.4508 15.69697074105503
